[{"placeCode":"INC","placeID":"2489","placeName":"8TH INCLAIN COL"},{"placeCode":"AGR","placeID":"496","placeName":"AGRA"},{"placeCode":"AMD","placeID":"208","placeName":"AHMEDABAD"},{"placeCode":"AMDB","placeID":"3453","placeName":"AHMEDABAD 2"},{"placeCode":"AMDCH","placeID":"3452","placeName":"AHMEDABAD CIRCUIT HOUSE"},{"placeCode":"AMR","placeID":"209","placeName":"AJMER RJ"},{"placeCode":"ALD","placeID":"485","placeName":"ALLAHABAD"},{"placeCode":"AMB","placeID":"3489","placeName":"AMB"},{"placeCode":"AMJ","placeID":"210","placeName":"AMBAJI"},{"placeCode":"5","placeID":"529","placeName":"AMBALA"},{"placeCode":"ABCNT","placeID":"3490","placeName":"AMBALA CANT"},{"placeCode":"APN","placeID":"334","placeName":"AMBAPANI"},{"placeCode":"AMB","placeID":"428","placeName":"AMBUR"},{"placeCode":"AMRPT","placeID":"548","placeName":"AMEERPET"},{"placeCode":"ARG","placeID":"212","placeName":"AMIRGAD"},{"placeCode":"AMRBR","placeID":"213","placeName":"AMIRGAD BORDER"},{"placeCode":"AMR","placeID":"470","placeName":"AMRITSAR"},{"placeCode":"ANPR","placeID":"335","placeName":"ANANDAPUR"},{"placeCode":"APR","placeID":"3491","placeName":"ANANDPUR SAHIB"},{"placeCode":"ANK","placeID":"216","placeName":"ANKALESWAR"},{"placeCode":"ASL","placeID":"336","placeName":"ASANSOLE"},{"placeCode":"ASHTA","placeID":"3471","placeName":"ASHTAVINAYAK DARSHAN"},{"placeCode":"AUT","placeID":"3492","placeName":"AUT"},{"placeCode":"AZM","placeID":"501","placeName":"AZAMGARH"},{"placeCode":"BADAH","placeID":"3493","placeName":"BADAH"},{"placeCode":"BBL","placeID":"337","placeName":"BADBIL"},{"placeCode":"BADI","placeID":"3494","placeName":"BADDI"},{"placeCode":"BDSR","placeID":"3495","placeName":"BADSAR"},{"placeCode":"BAGAL","placeID":"3474","placeName":"BAGALKOT"},{"placeCode":"17","placeID":"536","placeName":"BAIJNATH"},{"placeCode":"BDA","placeID":"338","placeName":"BAIPARIGUDA"},{"placeCode":"BALIA","placeID":"3455","placeName":"BALIA"},{"placeCode":"BUI","placeID":"494","placeName":"BALLIA"},{"placeCode":"BAN","placeID":"339","placeName":"BANEI"},{"placeCode":"BNGR","placeID":"217","placeName":"BANGALORE"},{"placeCode":"BANG","placeID":"3496","placeName":"BANGANA"},{"placeCode":"BKD","placeID":"3497","placeName":"BANKHANDI"},{"placeCode":"BRDL","placeID":"218","placeName":"BARDOLI"},{"placeCode":"BYN","placeID":"498","placeName":"BAREILY STATION"},{"placeCode":"BGH","placeID":"340","placeName":"BARGARH"},{"placeCode":"BPD","placeID":"341","placeName":"BARIPADA"},{"placeCode":"BAR","placeID":"342","placeName":"BARKOT"},{"placeCode":"BRMN","placeID":"3498","placeName":"BARMANA"},{"placeCode":"BRD","placeID":"220","placeName":"BARODA"},{"placeCode":"BRL","placeID":"343","placeName":"BARPALI"},{"placeCode":"BST","placeID":"492","placeName":"BASTI"},{"placeCode":"BVL","placeID":"222","placeName":"BAVLA"},{"placeCode":"BGN","placeID":"344","placeName":"BEGUN"},{"placeCode":"BTH","placeID":"345","placeName":"BELAGUNTHA"},{"placeCode":"BGM","placeID":"3458","placeName":"BELGAUM"},{"placeCode":"BNG","placeID":"481","placeName":"BENDAKALURU"},{"placeCode":"BAM","placeID":"346","placeName":"BERHAMPUR"},{"placeCode":"BERI","placeID":"3499","placeName":"BERI"},{"placeCode":"BDK","placeID":"347","placeName":"BHADRAK"},{"placeCode":"BGR","placeID":"3500","placeName":"BHAGER"},{"placeCode":"BJR","placeID":"348","placeName":"BHANJANAGAR"},{"placeCode":"BGT","placeID":"3501","placeName":"BHARARIGHAT"},{"placeCode":"BHAROL","placeID":"3502","placeName":"BHAROL"},{"placeCode":"BCH","placeID":"223","placeName":"BHARUCH"},{"placeCode":"BRW","placeID":"3503","placeName":"BHARWAIN"},{"placeCode":"BNA","placeID":"349","placeName":"BHAWANIPATNA"},{"placeCode":"BWN","placeID":"3504","placeName":"BHAWARNA"},{"placeCode":"BHI","placeID":"429","placeName":"BHIMAVARAM"},{"placeCode":"BPL","placeID":"430","placeName":"BHOPAL"},{"placeCode":"BHT","placeID":"3505","placeName":"BHOTA"},{"placeCode":"BBSR","placeID":"225","placeName":"BHUBANESWAR"},{"placeCode":"BHJ","placeID":"226","placeName":"BHUJ"},{"placeCode":"BUL","placeID":"3506","placeName":"BHULANA"},{"placeCode":"BHTR","placeID":"3507","placeName":"BHUNTER"},{"placeCode":"BDR","placeID":"542","placeName":"BIDAR"},{"placeCode":"13","placeID":"533","placeName":"BILASPUR"},{"placeCode":"BNK","placeID":"350","placeName":"BINIKA"},{"placeCode":"BIR","placeID":"3508","placeName":"BIR"},{"placeCode":"BLR","placeID":"351","placeName":"BOLANGIR"},{"placeCode":"BNI","placeID":"352","placeName":"BOLANI"},{"placeCode":"BMA","placeID":"353","placeName":"BORIGUMMA"},{"placeCode":"BKL","placeID":"354","placeName":"BORIKEL"},{"placeCode":"BDH","placeID":"355","placeName":"BOUDH"},{"placeCode":"18","placeID":"537","placeName":"CHABUTRA"},{"placeCode":"CDH","placeID":"3509","placeName":"CHADHIAR"},{"placeCode":"20","placeID":"538","placeName":"CHAMBA"},{"placeCode":"CHBT","placeID":"3510","placeName":"CHAMBAGHAT"},{"placeCode":"CMD","placeID":"3511","placeName":"CHAMUNDA"},{"placeCode":"CDH","placeID":"471","placeName":"CHANDIGARH"},{"placeCode":"CHN17","placeID":"3512","placeName":"CHANDIGARH 17"},{"placeCode":"CHD43","placeID":"3513","placeName":"CHANDIGARH 43"},{"placeCode":"CDKL","placeID":"356","placeName":"CHANDIKHOLE"},{"placeCode":"CHATI","placeID":"357","placeName":"CHATIA"},{"placeCode":"CHAN","placeID":"3514","placeName":"CHAUNTRA"},{"placeCode":"CHI","placeID":"231","placeName":"CHENNAI"},{"placeCode":"CHIKA","placeID":"3480","placeName":"CHIKAMAGALURU"},{"placeCode":"CHI","placeID":"432","placeName":"CHINGLEPET"},{"placeCode":"CPR","placeID":"3515","placeName":"CHINTPURNI"},{"placeCode":"CLA","placeID":"514","placeName":"CHIRALA"},{"placeCode":"CHOBU","placeID":"3516","placeName":"CHOBBU"},{"placeCode":"CPAL","placeID":"3517","placeName":"CHOPAL"},{"placeCode":"CHOUMK","placeID":"3518","placeName":"CHOUMUKHA"},{"placeCode":"CWR","placeID":"3519","placeName":"CHOWARI"},{"placeCode":"CBT","placeID":"433","placeName":"COIMBATORE"},{"placeCode":"CPRGN","placeID":"235","placeName":"COPPER GAON"},{"placeCode":"CTK","placeID":"236","placeName":"CUTTACK"},{"placeCode":"DGN","placeID":"358","placeName":"DABUGAON"},{"placeCode":"DKL","placeID":"359","placeName":"DAHIKHALA"},{"placeCode":"DALHOUSE","placeID":"3520","placeName":"DALHOUSE"},{"placeCode":"21","placeID":"539","placeName":"DALHOUSIE"},{"placeCode":"DND","placeID":"478","placeName":"DANDELI"},{"placeCode":"DRML","placeID":"238","placeName":"DARAMALI"},{"placeCode":"DGHAT","placeID":"3521","placeName":"DARLAGHAT"},{"placeCode":"DPL","placeID":"360","placeName":"DASAPALLA"},{"placeCode":"DSA","placeID":"239","placeName":"DEESA"},{"placeCode":"DEH","placeID":"3522","placeName":"DEHRA"},{"placeCode":"DDN","placeID":"499","placeName":"DEHRADUN"},{"placeCode":"DLH","placeID":"472","placeName":"DELHI"},{"placeCode":"DELHH","placeID":"3466","placeName":"DELHI 1 DAY TOUR"},{"placeCode":"DELHI","placeID":"3450","placeName":"DELHI DARSHAN"},{"placeCode":"DHOHO","placeID":"3468","placeName":"DELHI HOP ON HOP OFF"},{"placeCode":"DELHG","placeID":"3467","placeName":"DELHI ONE DAY PACKAGE"},{"placeCode":"DELH","placeID":"3465","placeName":"DELHI SIGHTSEEING"},{"placeCode":"DERAB","placeID":"3523","placeName":"DERA BASSI"},{"placeCode":"DMP","placeID":"241","placeName":"DHARAMPUR"},{"placeCode":"DPRMND","placeID":"3524","placeName":"DHARAMPUR MND"},{"placeCode":"DPLSLN","placeID":"3525","placeName":"DHARAMPUR SLN"},{"placeCode":"DSL","placeID":"3526","placeName":"DHARAMSALA"},{"placeCode":"DMR","placeID":"361","placeName":"DHARMAGARH"},{"placeCode":"DSL","placeID":"543","placeName":"DHARMASTALA"},{"placeCode":"DWR","placeID":"3459","placeName":"DHARWAD"},{"placeCode":"DHK","placeID":"362","placeName":"DHENKIKOTE"},{"placeCode":"DKL","placeID":"244","placeName":"DHOKLA"},{"placeCode":"DIN","placeID":"434","placeName":"DINDIGAL"},{"placeCode":"DRK","placeID":"247","placeName":"DWARAKA"},{"placeCode":"FAIZA","placeID":"3456","placeName":"FAIZABAD"},{"placeCode":"FBAD","placeID":"3527","placeName":"FARIDABAD"},{"placeCode":"FATP","placeID":"3528","placeName":"FATEHPUR"},{"placeCode":"GAGA","placeID":"3529","placeName":"GAGAS"},{"placeCode":"GALO","placeID":"3530","placeName":"GALORE"},{"placeCode":"GGS","placeID":"3531","placeName":"GHAGAS"},{"placeCode":"GTN","placeID":"364","placeName":"GHATAGAON"},{"placeCode":"GMR","placeID":"3532","placeName":"GHUMARWIN"},{"placeCode":"GMB","placeID":"250","placeName":"GJ MH BORDER"},{"placeCode":"GJMHB","placeID":"251","placeName":"GJMH BORDER"},{"placeCode":"GJRJB","placeID":"252","placeName":"GJRJ BORDER"},{"placeCode":"GNFC","placeID":"253","placeName":"GNFC S.T.STAND-BHARUCH"},{"placeCode":"GOA","placeID":"2736","placeName":"GOA (PANAJI)"},{"placeCode":"GDR","placeID":"254","placeName":"GODHARA"},{"placeCode":"GOD","placeID":"255","placeName":"GODHRA"},{"placeCode":"GDL","placeID":"257","placeName":"GONDAL BYPASS"},{"placeCode":"GKP","placeID":"491","placeName":"GORAKHPUR"},{"placeCode":"GMWN","placeID":"3533","placeName":"GUMARWIN"},{"placeCode":"GMD","placeID":"365","placeName":"GUMUDA"},{"placeCode":"GTR","placeID":"511","placeName":"GUNTUR"},{"placeCode":"GPR","placeID":"366","placeName":"GUNUPUR"},{"placeCode":"GGN","placeID":"3534","placeName":"GURGAON"},{"placeCode":"GSLI","placeID":"3535","placeName":"GUSHALI"},{"placeCode":"HADAD","placeID":"259","placeName":"HADAD"},{"placeCode":"HMR","placeID":"3536","placeName":"HAMIRPUR"},{"placeCode":"HDR","placeID":"3537","placeName":"HARIDWAR"},{"placeCode":"HPBDL","placeID":"3538","placeName":"HIMACHAL BHAWAN DELHI"},{"placeCode":"HMN","placeID":"261","placeName":"HIMATNAGAR"},{"placeCode":"HSR","placeID":"435","placeName":"HOSUR"},{"placeCode":"HBL","placeID":"436","placeName":"HUBLI"},{"placeCode":"HYD","placeID":"437","placeName":"HYDERABAD"},{"placeCode":"IDR","placeID":"263","placeName":"IDER"},{"placeCode":"IPR","placeID":"367","placeName":"INDRAPUR"},{"placeCode":"ISBT TUTI","placeID":"3539","placeName":"ISBT TUTI KANDI"},{"placeCode":"JKRD","placeID":"368","placeName":"J K ROAD"},{"placeCode":"PHMJ","placeID":"369","placeName":"J.I.T.M. PARLAKEMUNDI"},{"placeCode":"JNGER","placeID":"3540","placeName":"J.NAGER"},{"placeCode":"JAG","placeID":"3541","placeName":"JAGADHARI"},{"placeCode":"JGP","placeID":"370","placeName":"JAGANNATHPRASAD"},{"placeCode":"JLMA","placeID":"3542","placeName":"JAHLMA"},{"placeCode":"JAHU","placeID":"3543","placeName":"JAHU"},{"placeCode":"JPR","placeID":"265","placeName":"JAIPUR"},{"placeCode":"JSP","placeID":"3544","placeName":"JAISINGHPUR"},{"placeCode":"JAL","placeID":"473","placeName":"JALANDHAR"},{"placeCode":"JAM","placeID":"3473","placeName":"JAMMU"},{"placeCode":"JMR","placeID":"266","placeName":"JAMNAGAR"},{"placeCode":"JSPR","placeID":"371","placeName":"JAMSHEDPUR"},{"placeCode":"JBR","placeID":"3545","placeName":"JANGALBERI"},{"placeCode":"JJLI","placeID":"3546","placeName":"JANJHELI"},{"placeCode":"JRKA","placeID":"372","placeName":"JARKA"},{"placeCode":"JASSUR","placeID":"3547","placeName":"JASSUR"},{"placeCode":"JASS","placeID":"3548","placeName":"JASSURE"},{"placeCode":"JJI","placeID":"3549","placeName":"JAWALAJI"},{"placeCode":"JWL","placeID":"3550","placeName":"JAWALI"},{"placeCode":"JTP","placeID":"267","placeName":"JETPUR"},{"placeCode":"JEY","placeID":"268","placeName":"JEYPORE"},{"placeCode":"JDUTA","placeID":"3551","placeName":"JHANDUTTA"},{"placeCode":"JKP","placeID":"373","placeName":"JK PUR"},{"placeCode":"JOD","placeID":"374","placeName":"JODA"},{"placeCode":"JDP","placeID":"269","placeName":"JODHPUR"},{"placeCode":"JNR","placeID":"3552","placeName":"JOGINDER NAGAR"},{"placeCode":"JGDNR","placeID":"3553","placeName":"JOGINDERNAGAR"},{"placeCode":"JKL","placeID":"3554","placeName":"JUKHALA"},{"placeCode":"JND","placeID":"270","placeName":"JUNAGAD"},{"placeCode":"JDH","placeID":"271","placeName":"JUNAGADH"},{"placeCode":"JGR","placeID":"375","placeName":"JUNAGARH"},{"placeCode":"KMB","placeID":"272","placeName":"KA MH BORDER"},{"placeCode":"KAKKAR","placeID":"3555","placeName":"KAKKAR"},{"placeCode":"KNG","placeID":"376","placeName":"KALINGA"},{"placeCode":"3","placeID":"528","placeName":"KALKA"},{"placeCode":"KAL","placeID":"2845","placeName":"KALLA"},{"placeCode":"KLH","placeID":"3556","placeName":"KALOHA"},{"placeCode":"KMJX","placeID":"273","placeName":"KAMREJ X"},{"placeCode":"KCP","placeID":"438","placeName":"KANCHIPURAM"},{"placeCode":"KANDGHT","placeID":"3557","placeName":"KANDAGHAT"},{"placeCode":"KNDR","placeID":"3558","placeName":"KANDROUR"},{"placeCode":"15","placeID":"534","placeName":"KANGRA"},{"placeCode":"KPR","placeID":"275","placeName":"KAPURA"},{"placeCode":"KARAI","placeID":"3464","placeName":"KARAIKAL"},{"placeCode":"KJNX","placeID":"277","placeName":"KARJAN CROSS"},{"placeCode":"6","placeID":"530","placeName":"KARNAL"},{"placeCode":"KRSG","placeID":"377","placeName":"KARSINGH"},{"placeCode":"KSG","placeID":"3559","placeName":"KARSOG"},{"placeCode":"KATMD","placeID":"3483","placeName":"KATMANDU"},{"placeCode":"KTA","placeID":"486","placeName":"KATRA"},{"placeCode":"KAZ","placeID":"487","placeName":"KAZHUGUMALAI"},{"placeCode":"KGD","placeID":"378","placeName":"KENDUGUDA"},{"placeCode":"KNJ","placeID":"379","placeName":"KEONJHAR"},{"placeCode":"KSG","placeID":"380","placeName":"KESINGA"},{"placeCode":"KLG","placeID":"3560","placeName":"KEYLONG"},{"placeCode":"KRR","placeID":"381","placeName":"KHARIAR ROAD"},{"placeCode":"KHD","placeID":"278","placeName":"KHEDA"},{"placeCode":"KHDM","placeID":"279","placeName":"KHEDBRAHMA"},{"placeCode":"KRD","placeID":"382","placeName":"KHURDHA"},{"placeCode":"KIMX","placeID":"280","placeName":"KIM X NH 8"},{"placeCode":"KTPR","placeID":"3561","placeName":"KIRATPUR"},{"placeCode":"KBR","placeID":"383","placeName":"KIRIBUR"},{"placeCode":"KKSR","placeID":"3562","placeName":"KOKSAR"},{"placeCode":"KOL","placeID":"517","placeName":"KOLHAPUR"},{"placeCode":"KLK","placeID":"384","placeName":"KOLKATA"},{"placeCode":"KRK","placeID":"385","placeName":"KONARK"},{"placeCode":"KPT","placeID":"386","placeName":"KORAPUT"},{"placeCode":"KSMB","placeID":"281","placeName":"KOSAMBA X NH 8"},{"placeCode":"KTG","placeID":"387","placeName":"KOTAGARH"},{"placeCode":"KOT","placeID":"388","placeName":"KOTTAYAM"},{"placeCode":"KRI","placeID":"440","placeName":"KRISHNAGIRI"},{"placeCode":"KUK","placeID":"389","placeName":"KUAKHIA"},{"placeCode":"11","placeID":"532","placeName":"KULLU"},{"placeCode":"LDR","placeID":"3563","placeName":"LADROUR"},{"placeCode":"LKL","placeID":"520","placeName":"LAKDIVALAPUR"},{"placeCode":"LBAZZ","placeID":"3564","placeName":"LAKKAR BAZAR"},{"placeCode":"LGAON","placeID":"3565","placeName":"LAMBAGAON"},{"placeCode":"LGN","placeID":"3566","placeName":"LANGNA"},{"placeCode":"LGH","placeID":"390","placeName":"LANJIGARH"},{"placeCode":"LTN","placeID":"3567","placeName":"LATHIYANI"},{"placeCode":"LMD","placeID":"283","placeName":"LIMBDI"},{"placeCode":"LKO","placeID":"484","placeName":"LUCKNOW"},{"placeCode":"LDH","placeID":"468","placeName":"LUDHIANA"},{"placeCode":"MAD","placeID":"441","placeName":"MADURAI"},{"placeCode":"MBP","placeID":"442","placeName":"MAHABALIPURAM"},{"placeCode":"MKL","placeID":"3568","placeName":"MAHAKAAL"},{"placeCode":"MLGN","placeID":"284","placeName":"MALEGAON"},{"placeCode":"MKR","placeID":"391","placeName":"MALKANGIRI"},{"placeCode":"MAN","placeID":"3488","placeName":"MANALI"},{"placeCode":"MND","placeID":"3569","placeName":"MANDI"},{"placeCode":"MNG","placeID":"482","placeName":"MANGALOORU [MNG]"},{"placeCode":"MNG","placeID":"474","placeName":"MANGALORE"},{"placeCode":"MGL","placeID":"392","placeName":"MANGULI"},{"placeCode":"MKRN","placeID":"3570","placeName":"MANIKARAN"},{"placeCode":"MNMJ","placeID":"3571","placeName":"MANIMAJRA"},{"placeCode":"MNP","placeID":"515","placeName":"MANIPAL"},{"placeCode":"MNMD","placeID":"285","placeName":"MANMAD"},{"placeCode":"MNDR","placeID":"3572","placeName":"MARNDA"},{"placeCode":"MRT","placeID":"3573","placeName":"MAROTAN"},{"placeCode":"MAU","placeID":"493","placeName":"MAU"},{"placeCode":"MDG","placeID":"3574","placeName":"MCLEODGANJ"},{"placeCode":"MHT","placeID":"3575","placeName":"MEHATPUR"},{"placeCode":"MSN","placeID":"286","placeName":"MEHSANA"},{"placeCode":"MEL","placeID":"443","placeName":"MELUR"},{"placeCode":"MERCA","placeID":"3476","placeName":"MERCARA"},{"placeCode":"MIRAJ","placeID":"3475","placeName":"MIRAJ"},{"placeCode":"MBS","placeID":"3576","placeName":"MOHALI BUS STAND"},{"placeCode":"MTR","placeID":"393","placeName":"MOTER"},{"placeCode":"MOTU","placeID":"394","placeName":"MOTU"},{"placeCode":"23","placeID":"541","placeName":"MUBARKPUR"},{"placeCode":"MUM","placeID":"287","placeName":"MUMBAI"},{"placeCode":"MUNDI","placeID":"3577","placeName":"MUNDHI"},{"placeCode":"MGL","placeID":"3578","placeName":"MUNGAL"},{"placeCode":"MGA","placeID":"395","placeName":"MUNIGUDA"},{"placeCode":"MYSR","placeID":"3052","placeName":"MYSORE"},{"placeCode":"NBGWN","placeID":"3579","placeName":"N.BAGWAN"},{"placeCode":"NDN","placeID":"3580","placeName":"NADAUN"},{"placeCode":"NAD","placeID":"288","placeName":"NADIAD"},{"placeCode":"NDUN","placeID":"3581","placeName":"NADOUN"},{"placeCode":"NADUAN","placeID":"3582","placeName":"NADUAN"},{"placeCode":"NAG","placeID":"444","placeName":"NAGERCOIL VADACHERRY"},{"placeCode":"NAGNI","placeID":"3583","placeName":"NAGNI"},{"placeCode":"NGT","placeID":"3584","placeName":"NAGROTA"},{"placeCode":"NBGW","placeID":"3585","placeName":"NAGROTA BAGWAN"},{"placeCode":"NHN","placeID":"3586","placeName":"NAHAN"},{"placeCode":"NLG","placeID":"3587","placeName":"NALAGARH"},{"placeCode":"NGL","placeID":"3588","placeName":"NANGAL"},{"placeCode":"NRL","placeID":"396","placeName":"NARLA"},{"placeCode":"NSK","placeID":"290","placeName":"NASIK"},{"placeCode":"NVBPR","placeID":"291","placeName":"NAVAPUR BORDER"},{"placeCode":"NVS","placeID":"292","placeName":"NAVASARI"},{"placeCode":"MTRLX","placeID":"293","placeName":"NAVI METRAL X"},{"placeCode":"NPR","placeID":"397","placeName":"NAWARANGPUR"},{"placeCode":"NGH","placeID":"398","placeName":"NAYAGARH"},{"placeCode":"NEHRIAN","placeID":"3589","placeName":"NEHRIAN"},{"placeCode":"NHRNR","placeID":"294","placeName":"NEHRUNAGAR"},{"placeCode":"NLR","placeID":"445","placeName":"NELLORE"},{"placeCode":"NERC","placeID":"3590","placeName":"NERCHOWK"},{"placeCode":"NPUL","placeID":"3591","placeName":"NERI PUL"},{"placeCode":"NPN","placeID":"3460","placeName":"NIPPANI"},{"placeCode":"NRA","placeID":"3461","placeName":"NORTH RAICHURE"},{"placeCode":"NPD","placeID":"399","placeName":"NUAPADA"},{"placeCode":"OGN","placeID":"400","placeName":"ODAGAON"},{"placeCode":"ORJKB","placeID":"401","placeName":"ORISSAJARKHAND BORDER"},{"placeCode":"ORWB","placeID":"402","placeName":"ORWB BORDER"},{"placeCode":"PMR","placeID":"403","placeName":"PADAMPUR"},{"placeCode":"PMP","placeID":"404","placeName":"PADMAPUR"},{"placeCode":"PML","placeID":"405","placeName":"PAIKAMAL"},{"placeCode":"PLP","placeID":"3592","placeName":"PALAMPUR"},{"placeCode":"PLR","placeID":"296","placeName":"PALANPUR"},{"placeCode":"PLI","placeID":"299","placeName":"PALI"},{"placeCode":"PNJ","placeID":"477","placeName":"PANAJI"},{"placeCode":"PNBT","placeID":"406","placeName":"PANCHABHUTI"},{"placeCode":"PKL","placeID":"3593","placeName":"PANCHKULA"},{"placeCode":"PNKL","placeID":"407","placeName":"PANIKOILI"},{"placeCode":"7","placeID":"531","placeName":"PANIPAT"},{"placeCode":"PDD","placeID":"408","placeName":"PAPADAHANDI"},{"placeCode":"PKD","placeID":"409","placeName":"PARLAKHEMUNDI"},{"placeCode":"22","placeID":"540","placeName":"PATHANKOT"},{"placeCode":"PATNA","placeID":"3477","placeName":"PATNA"},{"placeCode":"PNG","placeID":"410","placeName":"PATNAGARH"},{"placeCode":"PONDA","placeID":"3481","placeName":"PONDA"},{"placeCode":"PON","placeID":"446","placeName":"PONDICHERRY"},{"placeCode":"PTC","placeID":"447","placeName":"PONDICHERY"},{"placeCode":"PNN","placeID":"513","placeName":"PONNURU"},{"placeCode":"PNA","placeID":"300","placeName":"POONA"},{"placeCode":"PRB","placeID":"302","placeName":"PORBANDAR"},{"placeCode":"PQR","placeID":"490","placeName":"PQRAB"},{"placeCode":"PNH","placeID":"303","placeName":"PRANTIJ HIGHWAY"},{"placeCode":"PUDUC","placeID":"3486","placeName":"PUDUCHERRY"},{"placeCode":"PNA","placeID":"3462","placeName":"PUNE"},{"placeCode":"PNP","placeID":"411","placeName":"PURUNAPANI"},{"placeCode":"RGR","placeID":"412","placeName":"RAIGHAR"},{"placeCode":"RKT","placeID":"305","placeName":"RAJKOT"},{"placeCode":"RMD","placeID":"413","placeName":"RAMANAGUDA"},{"placeCode":"RMB","placeID":"414","placeName":"RAMBHA"},{"placeCode":"RMP","placeID":"415","placeName":"RAMPUR"},{"placeCode":"RCH","placeID":"416","placeName":"RANCHI"},{"placeCode":"RTNBR","placeID":"306","placeName":"RATNAPUR BORDER"},{"placeCode":"RGD","placeID":"417","placeName":"RAYGADA"},{"placeCode":"SGR","placeID":"527","placeName":"SAGAR"},{"placeCode":"STL","placeID":"418","placeName":"SAINTALA"},{"placeCode":"SLM","placeID":"448","placeName":"SALEM"},{"placeCode":"SLV","placeID":"308","placeName":"SALVI"},{"placeCode":"SPTBR","placeID":"310","placeName":"SAPUTARA BORDER"},{"placeCode":"SNL","placeID":"419","placeName":"SARANAKUL"},{"placeCode":"SHM","placeID":"521","placeName":"SHIMLA"},{"placeCode":"SMG","placeID":"525","placeName":"SHIMOGA"},{"placeCode":"SHRD","placeID":"312","placeName":"SHIRDI"},{"placeCode":"SRD","placeID":"313","placeName":"SHIRSAD"},{"placeCode":"SDPZ","placeID":"519","placeName":"SIDDAPUR"},{"placeCode":"SRS","placeID":"315","placeName":"SIRSI"},{"placeCode":"SOLAP","placeID":"3469","placeName":"SOLAPUR"},{"placeCode":"SPR","placeID":"420","placeName":"SONAPUR"},{"placeCode":"SPE","placeID":"449","placeName":"SPETA"},{"placeCode":"SPR","placeID":"450","placeName":"SRI PERAMBADUR"},{"placeCode":"SRI","placeID":"451","placeName":"SRIKALAHASTI"},{"placeCode":"SRINA","placeID":"3472","placeName":"SRINAGAR"},{"placeCode":"SBA","placeID":"421","placeName":"SUNABEDA"},{"placeCode":"SKL","placeID":"422","placeName":"SUNAKHALA"},{"placeCode":"SRT","placeID":"317","placeName":"SURAT"},{"placeCode":"SRT1","placeID":"3454","placeName":"SURAT1"},{"placeCode":"SRPT","placeID":"549","placeName":"SURYAPET"},{"placeCode":"TADA","placeID":"452","placeName":"TADA"},{"placeCode":"TAM","placeID":"453","placeName":"TAMBARAM"},{"placeCode":"TCH","placeID":"423","placeName":"TANGI CHANDPUR"},{"placeCode":"TEST","placeID":"454","placeName":"TEST RECORD"},{"placeCode":"THI","placeID":"455","placeName":"THIRUVANANTHAPURAM"},{"placeCode":"THO","placeID":"456","placeName":"THOZHUDUR"},{"placeCode":"TIN","placeID":"457","placeName":"TINDIVANAM"},{"placeCode":"TNB","placeID":"458","placeName":"TIRUNELVELI NEW BUS STAND"},{"placeCode":"TIR","placeID":"459","placeName":"TIRUPATHY"},{"placeCode":"TTR","placeID":"424","placeName":"TITILAGARH"},{"placeCode":"TNAPB","placeID":"460","placeName":"TNAP BORDER"},{"placeCode":"TOR","placeID":"461","placeName":"TORAI MANGALAM"},{"placeCode":"TRH","placeID":"462","placeName":"TRICHY"},{"placeCode":"TRI","placeID":"425","placeName":"TRIVANDRUM"},{"placeCode":"UPR","placeID":"321","placeName":"UDAIPUR"},{"placeCode":"UDU","placeID":"516","placeName":"UDUPI"},{"placeCode":"ULU","placeID":"463","placeName":"ULUNDURPET"},{"placeCode":"UKT","placeID":"426","placeName":"UMERKOTE"},{"placeCode":"16","placeID":"535","placeName":"UNA"},{"placeCode":"UKL","placeID":"427","placeName":"UTKELLA"},{"placeCode":"VDLI","placeID":"324","placeName":"VADALI"},{"placeCode":"VDR","placeID":"325","placeName":"VADODARA"},{"placeCode":"VNS","placeID":"495","placeName":"VARANASI"},{"placeCode":"VASCO","placeID":"3470","placeName":"VASCO"},{"placeCode":"VED","placeID":"464","placeName":"VEDANTHANGAL"},{"placeCode":"VGB","placeID":"483","placeName":"VEHTAMUJAV"},{"placeCode":"VEA","placeID":"3463","placeName":"VELANGANI"},{"placeCode":"VELL","placeID":"547","placeName":"VELLORE"},{"placeCode":"VLR","placeID":"465","placeName":"VELUR"},{"placeCode":"VIJ","placeID":"466","placeName":"VIJAYAWADA"},{"placeCode":"VIL","placeID":"467","placeName":"VILLUPURAM"},{"placeCode":"VIK","placeID":"509","placeName":"VISAKHAPATNAM"},{"placeCode":"XYZ","placeID":"489","placeName":"XYZABC"},{"placeCode":"YLP","placeID":"518","placeName":"YALLAPUR"},{"placeCode":"YLL","placeID":"526","placeName":"YELLAPUR"},{"placeCode":"ZDWX","placeID":"333","placeName":"ZADESHWAR X"}]